STARLINK-5303           
1 55630U 23021C   26068.80262972  .00000032  00000+0  10498-4 0  9995
2 55630  70.0006 204.2304 0003064 269.6598  90.4210 14.98330043168317
STRIX-5                 
1 65971U 25229A   26068.48916036  .00006129  00000+0  44900-3 0  9994
2 65971  41.9265 119.8574 0036941 120.2079 240.2413 15.03509399 21964
